MONITOR-3 (RS58S)       
1 57180U 23091Q   26065.82691500  .00014182  00000+0  55833-3 0  9998
2 57180  97.5204 128.6249 0013755 100.8962 259.3824 15.25647463148671
MONITOR-4 (RS57S)       
1 57182U 23091S   26065.87778564  .00014942  00000+0  58653-3 0  9998
2 57182  97.5198 128.6408 0013715 101.1094 259.1687 15.25734530148686
MONITOR-2 (RS39S)       
1 57184U 23091U   26065.83848318  .00007679  00000+0  38153-3 0  9993
2 57184  97.5203 124.7915 0012984 107.6249 252.6404 15.17871067148420
SVYATOBOR 1 (RS60S)     
1 57187U 23091X   26065.87824222  .00012486  00000+0  50604-3 0  9995
2 57187  97.5209 129.2085 0011246  93.7276 266.5247 15.24734854148713
HORS 1                  
1 57188U 23091Y   26065.86970292  .00013249  00000+0  53568-3 0  9994
2 57188  97.5189 128.9773 0010768  93.9353 266.3116 15.24806335148714
VIZARD-METEO (RS38S)    
1 57189U 23091Z   26065.89066519  .00021945  00000+0  69717-3 0  9991
2 57189  97.5199 133.5336 0008886  80.9361 279.2886 15.32620735149003
NANOZOND 1 (RS49S)      
1 57190U 23091AA  26063.78486012  .00233103  00000+0  17099-2 0  9999
2 57190  97.5090 143.6448 0000456  27.7219 332.4068 15.72447637149508
SITRO-AIS 6 (CHIRKIN)   
1 57192U 23091AC  26065.89131718  .00009948  00000+0  40804-3 0  9994
2 57192  97.5187 128.5507 0014213 104.4356 255.8459 15.24356657148695
SITRO-AIS 8 (ANOKHIN)   
1 57193U 23091AD  26065.84863843  .00019050  00000+0  67182-3 0  9994
2 57193  97.5174 130.1078 0012595 101.7866 258.4787 15.29231704148795
SITRO-AIS 7 (FARTUSHNIY)
1 57194U 23091AE  26065.87539711  .00008482  00000+0  35101-3 0  9995
2 57194  97.5186 128.4071 0014062 105.2747 255.0045 15.24108374148689
AVION KALUGA 650        
1 57195U 23091AF  26065.84620333  .00008815  00000+0  42157-3 0  9993
2 57195  97.5217 125.8584 0012168 106.3554 253.9019 15.19165016148484
HORS 2                  
1 57196U 23091AG  26065.84927938  .00017186  00000+0  60832-3 0  9996
2 57196  97.5201 131.6350 0009937  88.6207 271.6171 15.29163674148879
A-SEANSAT-PG1           
1 57197U 23091AH  26065.87180084  .00025367  00000+0  78897-3 0  9993
2 57197  97.5190 133.4992 0009006  87.6077 272.6196 15.33267678149019
SITRO-AIS 10 (BURDAEV)  
1 57199U 23091AK  26065.88377674  .00027478  00000+0  81936-3 0  9992
2 57199  97.5188 134.2370 0008318  83.7624 276.4565 15.34593980149052
SITRO-AIS 9 (SHCHUKIN)  
1 57201U 23091AM  26065.88131400  .00027235  00000+0  82165-3 0  9997
2 57201  97.5186 134.0356 0008544  83.6527 276.5689 15.34224594149047
UTMN 2 (RS27S)          
1 57203U 23091AP  26065.88967975  .00017711  00000+0  62266-3 0  9991
2 57203  97.5201 131.8394 0009835  85.2404 274.9959 15.29379115148898
