[{"OBJECT_NAME":"MONITOR-3 (RS58S)","OBJECT_ID":"2023-091Q","EPOCH":"2026-03-06T19:50:45.456000","MEAN_MOTION":15.25647463,"ECCENTRICITY":0.0013755,"INCLINATION":97.5204,"RA_OF_ASC_NODE":128.6249,"ARG_OF_PERICENTER":100.8962,"MEAN_ANOMALY":259.3824,"EPHEMERIS_TYPE":0,"CLASSIFICATION_TYPE":"U","NORAD_CAT_ID":57180,"ELEMENT_SET_NO":999,"REV_AT_EPOCH":14867,"BSTAR":0.00055833,"MEAN_MOTION_DOT":0.00014182,"MEAN_MOTION_DDOT":0},{"OBJECT_NAME":"MONITOR-4 (RS57S)","OBJECT_ID":"2023-091S","EPOCH":"2026-03-06T21:04:00.679296","MEAN_MOTION":15.2573453,"ECCENTRICITY":0.0013715,"INCLINATION":97.5198,"RA_OF_ASC_NODE":128.6408,"ARG_OF_PERICENTER":101.1094,"MEAN_ANOMALY":259.1687,"EPHEMERIS_TYPE":0,"CLASSIFICATION_TYPE":"U","NORAD_CAT_ID":57182,"ELEMENT_SET_NO":999,"REV_AT_EPOCH":14868,"BSTAR":0.00058653,"MEAN_MOTION_DOT":0.00014942,"MEAN_MOTION_DDOT":0},{"OBJECT_NAME":"MONITOR-2 (RS39S)","OBJECT_ID":"2023-091U","EPOCH":"2026-03-06T20:07:24.946752","MEAN_MOTION":15.17871067,"ECCENTRICITY":0.0012984,"INCLINATION":97.5203,"RA_OF_ASC_NODE":124.7915,"ARG_OF_PERICENTER":107.6249,"MEAN_ANOMALY":252.6404,"EPHEMERIS_TYPE":0,"CLASSIFICATION_TYPE":"U","NORAD_CAT_ID":57184,"ELEMENT_SET_NO":999,"REV_AT_EPOCH":14842,"BSTAR":0.00038153,"MEAN_MOTION_DOT":7.679e-5,"MEAN_MOTION_DDOT":0},{"OBJECT_NAME":"SVYATOBOR 1 (RS60S)","OBJECT_ID":"2023-091X","EPOCH":"2026-03-06T21:04:40.127808","MEAN_MOTION":15.24734854,"ECCENTRICITY":0.0011246,"INCLINATION":97.5209,"RA_OF_ASC_NODE":129.2085,"ARG_OF_PERICENTER":93.7276,"MEAN_ANOMALY":266.5247,"EPHEMERIS_TYPE":0,"CLASSIFICATION_TYPE":"U","NORAD_CAT_ID":57187,"ELEMENT_SET_NO":999,"REV_AT_EPOCH":14871,"BSTAR":0.00050604,"MEAN_MOTION_DOT":0.00012486,"MEAN_MOTION_DDOT":0},{"OBJECT_NAME":"HORS 1","OBJECT_ID":"2023-091Y","EPOCH":"2026-03-06T20:52:22.332288","MEAN_MOTION":15.24806335,"ECCENTRICITY":0.0010768,"INCLINATION":97.5189,"RA_OF_ASC_NODE":128.9773,"ARG_OF_PERICENTER":93.9353,"MEAN_ANOMALY":266.3116,"EPHEMERIS_TYPE":0,"CLASSIFICATION_TYPE":"U","NORAD_CAT_ID":57188,"ELEMENT_SET_NO":999,"REV_AT_EPOCH":14871,"BSTAR":0.00053568,"MEAN_MOTION_DOT":0.00013249,"MEAN_MOTION_DDOT":0},{"OBJECT_NAME":"VIZARD-METEO (RS38S)","OBJECT_ID":"2023-091Z","EPOCH":"2026-03-06T21:22:33.472416","MEAN_MOTION":15.32620735,"ECCENTRICITY":0.0008886,"INCLINATION":97.5199,"RA_OF_ASC_NODE":133.5336,"ARG_OF_PERICENTER":80.9361,"MEAN_ANOMALY":279.2886,"EPHEMERIS_TYPE":0,"CLASSIFICATION_TYPE":"U","NORAD_CAT_ID":57189,"ELEMENT_SET_NO":999,"REV_AT_EPOCH":14900,"BSTAR":0.00069717,"MEAN_MOTION_DOT":0.00021945,"MEAN_MOTION_DDOT":0},{"OBJECT_NAME":"NANOZOND 1 (RS49S)","OBJECT_ID":"2023-091AA","EPOCH":"2026-03-04T18:50:11.914368","MEAN_MOTION":15.72447637,"ECCENTRICITY":4.56e-5,"INCLINATION":97.509,"RA_OF_ASC_NODE":143.6448,"ARG_OF_PERICENTER":27.7219,"MEAN_ANOMALY":332.4068,"EPHEMERIS_TYPE":0,"CLASSIFICATION_TYPE":"U","NORAD_CAT_ID":57190,"ELEMENT_SET_NO":999,"REV_AT_EPOCH":14950,"BSTAR":0.0017099321,"MEAN_MOTION_DOT":0.00233103,"MEAN_MOTION_DDOT":0},{"OBJECT_NAME":"SITRO-AIS 6 (CHIRKIN)","OBJECT_ID":"2023-091AC","EPOCH":"2026-03-06T21:23:29.804352","MEAN_MOTION":15.24356657,"ECCENTRICITY":0.0014213,"INCLINATION":97.5187,"RA_OF_ASC_NODE":128.5507,"ARG_OF_PERICENTER":104.4356,"MEAN_ANOMALY":255.8459,"EPHEMERIS_TYPE":0,"CLASSIFICATION_TYPE":"U","NORAD_CAT_ID":57192,"ELEMENT_SET_NO":999,"REV_AT_EPOCH":14869,"BSTAR":0.00040804,"MEAN_MOTION_DOT":9.948e-5,"MEAN_MOTION_DDOT":0},{"OBJECT_NAME":"SITRO-AIS 8 (ANOKHIN)","OBJECT_ID":"2023-091AD","EPOCH":"2026-03-06T20:22:02.360352","MEAN_MOTION":15.29231704,"ECCENTRICITY":0.0012595,"INCLINATION":97.5174,"RA_OF_ASC_NODE":130.1078,"ARG_OF_PERICENTER":101.7866,"MEAN_ANOMALY":258.4787,"EPHEMERIS_TYPE":0,"CLASSIFICATION_TYPE":"U","NORAD_CAT_ID":57193,"ELEMENT_SET_NO":999,"REV_AT_EPOCH":14879,"BSTAR":0.00067182,"MEAN_MOTION_DOT":0.0001905,"MEAN_MOTION_DDOT":0},{"OBJECT_NAME":"SITRO-AIS 7 (FARTUSHNIY)","OBJECT_ID":"2023-091AE","EPOCH":"2026-03-06T21:00:34.310304","MEAN_MOTION":15.24108374,"ECCENTRICITY":0.0014062,"INCLINATION":97.5186,"RA_OF_ASC_NODE":128.4071,"ARG_OF_PERICENTER":105.2747,"MEAN_ANOMALY":255.0045,"EPHEMERIS_TYPE":0,"CLASSIFICATION_TYPE":"U","NORAD_CAT_ID":57194,"ELEMENT_SET_NO":999,"REV_AT_EPOCH":14868,"BSTAR":0.00035101,"MEAN_MOTION_DOT":8.482e-5,"MEAN_MOTION_DDOT":0},{"OBJECT_NAME":"AVION KALUGA 650","OBJECT_ID":"2023-091AF","EPOCH":"2026-03-06T20:18:31.967712","MEAN_MOTION":15.19165016,"ECCENTRICITY":0.0012168,"INCLINATION":97.5217,"RA_OF_ASC_NODE":125.8584,"ARG_OF_PERICENTER":106.3554,"MEAN_ANOMALY":253.9019,"EPHEMERIS_TYPE":0,"CLASSIFICATION_TYPE":"U","NORAD_CAT_ID":57195,"ELEMENT_SET_NO":999,"REV_AT_EPOCH":14848,"BSTAR":0.00042157,"MEAN_MOTION_DOT":8.815e-5,"MEAN_MOTION_DDOT":0},{"OBJECT_NAME":"HORS 2","OBJECT_ID":"2023-091AG","EPOCH":"2026-03-06T20:22:57.738432","MEAN_MOTION":15.29163674,"ECCENTRICITY":0.0009937,"INCLINATION":97.5201,"RA_OF_ASC_NODE":131.635,"ARG_OF_PERICENTER":88.6207,"MEAN_ANOMALY":271.6171,"EPHEMERIS_TYPE":0,"CLASSIFICATION_TYPE":"U","NORAD_CAT_ID":57196,"ELEMENT_SET_NO":999,"REV_AT_EPOCH":14887,"BSTAR":0.00060832,"MEAN_MOTION_DOT":0.00017186,"MEAN_MOTION_DDOT":0},{"OBJECT_NAME":"A-SEANSAT-PG1","OBJECT_ID":"2023-091AH","EPOCH":"2026-03-06T20:55:23.592576","MEAN_MOTION":15.33267678,"ECCENTRICITY":0.0009006,"INCLINATION":97.519,"RA_OF_ASC_NODE":133.4992,"ARG_OF_PERICENTER":87.6077,"MEAN_ANOMALY":272.6196,"EPHEMERIS_TYPE":0,"CLASSIFICATION_TYPE":"U","NORAD_CAT_ID":57197,"ELEMENT_SET_NO":999,"REV_AT_EPOCH":14901,"BSTAR":0.00078897,"MEAN_MOTION_DOT":0.00025367,"MEAN_MOTION_DDOT":0},{"OBJECT_NAME":"SITRO-AIS 10 (BURDAEV)","OBJECT_ID":"2023-091AK","EPOCH":"2026-03-06T21:12:38.310336","MEAN_MOTION":15.3459398,"ECCENTRICITY":0.0008318,"INCLINATION":97.5188,"RA_OF_ASC_NODE":134.237,"ARG_OF_PERICENTER":83.7624,"MEAN_ANOMALY":276.4565,"EPHEMERIS_TYPE":0,"CLASSIFICATION_TYPE":"U","NORAD_CAT_ID":57199,"ELEMENT_SET_NO":999,"REV_AT_EPOCH":14905,"BSTAR":0.00081936,"MEAN_MOTION_DOT":0.00027478,"MEAN_MOTION_DDOT":0},{"OBJECT_NAME":"SITRO-AIS 9 (SHCHUKIN)","OBJECT_ID":"2023-091AM","EPOCH":"2026-03-06T21:09:05.529600","MEAN_MOTION":15.34224594,"ECCENTRICITY":0.0008544,"INCLINATION":97.5186,"RA_OF_ASC_NODE":134.0356,"ARG_OF_PERICENTER":83.6527,"MEAN_ANOMALY":276.5689,"EPHEMERIS_TYPE":0,"CLASSIFICATION_TYPE":"U","NORAD_CAT_ID":57201,"ELEMENT_SET_NO":999,"REV_AT_EPOCH":14904,"BSTAR":0.00082165,"MEAN_MOTION_DOT":0.00027235,"MEAN_MOTION_DDOT":0},{"OBJECT_NAME":"UTMN 2 (RS27S)","OBJECT_ID":"2023-091AP","EPOCH":"2026-03-06T21:21:08.330400","MEAN_MOTION":15.29379115,"ECCENTRICITY":0.0009835,"INCLINATION":97.5201,"RA_OF_ASC_NODE":131.8394,"ARG_OF_PERICENTER":85.2404,"MEAN_ANOMALY":274.9959,"EPHEMERIS_TYPE":0,"CLASSIFICATION_TYPE":"U","NORAD_CAT_ID":57203,"ELEMENT_SET_NO":999,"REV_AT_EPOCH":14889,"BSTAR":0.00062266,"MEAN_MOTION_DOT":0.00017711,"MEAN_MOTION_DDOT":0}]
